NORAD_CAT_ID,OBJECT_NAME,OBJECT_TYPE,EPOCH,MEAN_MOTION,ECCENTRICITY,INCLINATION,RA_OF_ASC_NODE,ARG_OF_PERICENTER,MEAN_ANOMALY,BSTAR,MEAN_MOTION_DOT,MEAN_MOTION_DDOT,TLE_LINE0,TLE_LINE1,TLE_LINE2,SEMIMAJOR_AXIS,PERIOD,APOGEE,PERIGEE,DECAYED
56806.0,STARLINK-6072,PAYLOAD,2024-04-28 13:40:42,14.9832134,0.0003135,70.0013,219.171,269.1883,90.8917,-0.00018873,-2.344e-05,0.0,0 STARLINK-6072,1 56806U 23078AR  24119.56993062 -.00002344  00000-0 -18873-3 0  9997,2 56806  70.0013 219.1710 0003135 269.1883  90.8917 14.98321340 52059,6950.22,96.108,574.264,569.906,0.0
56806.0,STARLINK-6072,PAYLOAD,2024-04-28 16:52:58,14.983207,0.0003028,70.0016,218.8348,266.8812,93.2001,-0.00016054,-2.008e-05,0.0,0 STARLINK-6072,1 56806U 23078AR  24119.70345084 -.00002008  00000-0 -16054-3 0  9994,2 56806  70.0016 218.8348 0003028 266.8812  93.2001 14.98320700 51815,6950.222,96.108,574.191,569.982,0.0
56806.0,STARLINK-6072,PAYLOAD,2024-04-29 12:06:33,14.98337272,0.0003192,70.0012,216.815,269.0044,91.0749,-0.00012791,-1.619e-05,0.0,0 STARLINK-6072,1 56806U 23078AR  24120.50455967 -.00001619  00000-0 -12791-3 0  9997,2 56806  70.0012 216.8150 0003192 269.0044  91.0749 14.98337272 52193,6950.17,96.107,574.254,569.817,0.0
56806.0,STARLINK-6072,PAYLOAD,2024-04-29 13:42:41,14.98339343,0.0003131,70.0012,216.6468,268.7829,91.2971,-0.00010521,-1.348e-05,0.0,0 STARLINK-6072,1 56806U 23078AR  24120.57131747 -.00001348  00000-0 -10521-3 0  9999,2 56806  70.0012 216.6468 0003131 268.7829  91.2971 14.98339343 51945,6950.164,96.106,574.205,569.853,0.0
56806.0,STARLINK-6072,PAYLOAD,2024-04-29 15:18:49,14.98341557,0.0003092,70.0014,216.4787,268.2678,91.8127,-7.6876e-05,-1.01e-05,0.0,0 STARLINK-6072,1 56806U 23078AR  24120.63807484 -.00001010  00000-0 -76876-4 0  9996,2 56806  70.0014 216.4787 0003092 268.2678  91.8127 14.98341557 51952,6950.157,96.106,574.171,569.873,0.0
56806.0,STARLINK-6072,PAYLOAD,2024-04-30 13:44:42,14.98326857,0.0002974,70.0017,214.1226,266.7661,93.3158,0.00017503,1.996e-05,0.0,0 STARLINK-6072,1 56806U 23078AR  24121.57271682  .00001996  00000-0  17503-3 0  9997,2 56806  70.0017 214.1226 0002974 266.7661  93.3158 14.98326857 52094,6950.203,96.107,574.135,570.001,0.0
56806.0,STARLINK-6072,PAYLOAD,2024-04-30 15:20:50,14.98327731,0.0002967,70.0017,213.9544,266.6494,93.4326,0.00018057,2.062e-05,0.0,0 STARLINK-6072,1 56806U 23078AR  24121.63947617  .00002062  00000-0  18057-3 0  9992,2 56806  70.0017 213.9544 0002967 266.6494  93.4326 14.98327731 52369,6950.2,96.107,574.127,570.003,0.0
56806.0,STARLINK-6072,PAYLOAD,2024-05-01 12:10:35,14.98335922,0.0002942,70.0018,211.7668,268.038,92.0442,-1.999e-07,-9.5e-07,0.0,0 STARLINK-6072,1 56806U 23078AR  24122.50735469 -.00000095  00000-0 -19990-6 0  9995,2 56806  70.0018 211.7668 0002942 268.0380  92.0442 14.98335922 52237,6950.175,96.107,574.084,569.995,0.0
56806.0,STARLINK-6072,PAYLOAD,2024-05-01 23:23:32,14.98319511,0.0003219,70.0005,210.5859,273.0348,87.0442,0.00026059,3.017e-05,0.0,0 STARLINK-6072,1 56806U 23078AR  24122.97467739  .00003017  00000-0  26059-3 0  9994,2 56806  70.0005 210.5859 0003219 273.0348  87.0442 14.98319511 52566,6950.225,96.108,574.328,569.853,0.0
56806.0,STARLINK-6072,PAYLOAD,2024-05-02 13:48:44,14.98331168,0.0002933,70.0015,209.0728,268.4347,91.6476,-0.00012181,-1.546e-05,0.0,0 STARLINK-6072,1 56806U 23078AR  24123.57551850 -.00001546  00000-0 -12181-3 0  9997,2 56806  70.0015 209.0728 0002933 268.4347  91.6476 14.98331168 52395,6950.189,96.107,574.093,570.016,0.0
56806.0,STARLINK-6072,PAYLOAD,2024-05-02 23:25:33,14.98307751,0.0002876,70.0014,208.0632,276.9774,83.1058,0.00043156,5.057e-05,0.0,0 STARLINK-6072,1 56806U 23078AR  24123.97608146  .00005057  00000-0  43156-3 0  9997,2 56806  70.0014 208.0632 0002876 276.9774  83.1058 14.98307751 52710,6950.262,96.108,574.126,570.128,0.0
56806.0,STARLINK-6072,PAYLOAD,2024-05-03 12:14:36,14.98342223,0.0003156,70.0011,206.7166,271.5495,88.5303,8.2838e-05,8.96e-06,0.0,0 STARLINK-6072,1 56806U 23078AR  24124.51014207  .00000896  00000-0  82838-4 0  9994,2 56806  70.0011 206.7166 0003156 271.5495  88.5303 14.98342223 52790,6950.155,96.106,574.214,569.827,0.0
56806.0,STARLINK-6072,PAYLOAD,2024-05-03 13:50:44,14.98344281,0.0003141,70.0011,206.5483,271.5573,88.5226,0.00010482,1.158e-05,0.0,0 STARLINK-6072,1 56806U 23078AR  24124.57689957  .00001158  00000-0  10482-3 0  9997,2 56806  70.0011 206.5483 0003141 271.5573  88.5226 14.98344281 52544,6950.149,96.106,574.197,569.831,0.0
56806.0,STARLINK-6072,PAYLOAD,2024-05-03 15:26:52,14.98345029,0.0003128,70.0012,206.38,271.6045,88.4756,0.00011838,1.32e-05,0.0,0 STARLINK-6072,1 56806U 23078AR  24124.64365814  .00001320  00000-0  11838-3 0  9995,2 56806  70.0012 206.3800 0003128 271.6045  88.4756 14.98345029 52555,6950.146,96.106,574.185,569.837,0.0
56806.0,STARLINK-6072,PAYLOAD,2024-05-04 12:16:39,14.98314147,0.0003205,70.0008,204.1925,270.3773,89.7019,-0.00015008,-1.883e-05,0.0,0 STARLINK-6072,1 56806U 23078AR  24125.51156827 -.00001883  00000-0 -15008-3 0  9993,2 56806  70.0008 204.1925 0003205 270.3773  89.7019 14.98314147 52940,6950.242,96.108,574.334,569.879,0.0
56806.0,STARLINK-6072,PAYLOAD,2024-05-04 21:53:27,14.9831866,0.0003171,70.0008,203.1824,270.4057,89.6739,-0.00011601,-1.477e-05,0.0,0 STARLINK-6072,1 56806U 23078AR  24125.91212769 -.00001477  00000-0 -11601-3 0  9999,2 56806  70.0008 203.1824 0003171 270.4057  89.6739 14.98318660 53005,6950.228,96.108,574.297,569.889,0.0
56806.0,STARLINK-6072,PAYLOAD,2024-05-05 12:18:40,14.98328768,0.0003133,70.0009,201.6675,273.087,86.993,-0.0001298,-1.641e-05,0.0,0 STARLINK-6072,1 56806U 23078AR  24126.51296489 -.00001641  00000-0 -12980-3 0  9991,2 56806  70.0009 201.6675 0003133 273.0870  86.9930 14.98328768 53095,6950.197,96.107,574.239,569.884,0.0
56806.0,STARLINK-6072,PAYLOAD,2024-05-05 13:54:48,14.98329965,0.0003034,70.0011,201.4995,271.1342,88.9469,-0.00010896,-1.393e-05,0.0,0 STARLINK-6072,1 56806U 23078AR  24126.57972360 -.00001393  00000-0 -10896-3 0  9994,2 56806  70.0011 201.4995 0003034 271.1342  88.9469 14.98329965 52845,6950.193,96.107,574.167,569.949,0.0
56806.0,STARLINK-6072,PAYLOAD,2024-05-05 21:56:25,14.97558553,0.0004441,70.0024,200.6616,214.1416,145.9457,-0.0089483,-0.00103243,0.0,0 STARLINK-6072,1 56806U 23078AR  24126.91417882 -.00103243  00000-0 -89483-2 0  9999,2 56806  70.0024 200.6616 0004441 214.1416 145.9457 14.97558553 52894,6952.58,96.157,577.532,571.357,0.0
56806.0,STARLINK-6072,PAYLOAD,2024-05-06 12:20:40,14.98331546,0.000305,70.0007,199.1431,270.4419,89.6391,0.00026921,3.121e-05,0.0,0 STARLINK-6072,1 56806U 23078AR  24127.51435382  .00003121  00000-0  26921-3 0  9992,2 56806  70.0007 199.1431 0003050 270.4419  89.6391 14.98331546 53248,6950.188,96.107,574.173,569.933,0.0
56806.0,STARLINK-6072,PAYLOAD,2024-05-06 13:56:48,14.98333755,0.0003031,70.0008,198.9747,271.4267,88.6544,0.00028909,3.358e-05,0.0,0 STARLINK-6072,1 56806U 23078AR  24127.58111183  .00003358  00000-0  28909-3 0  9999,2 56806  70.0008 198.9747 0003031 271.4267  88.6544 14.98333755 52991,6950.181,96.107,574.153,569.94,0.0
56806.0,STARLINK-6072,PAYLOAD,2024-05-06 21:57:28,14.98333039,0.0003005,70.0008,198.1332,270.6153,89.4662,0.0002229,2.568e-05,0.0,0 STARLINK-6072,1 56806U 23078AR  24127.91491332  .00002568  00000-0  22290-3 0  9992,2 56806  70.0008 198.1332 0003005 270.6153  89.4662 14.98333039 53041,6950.183,96.107,574.137,569.96,0.0
56806.0,STARLINK-6072,PAYLOAD,2024-05-07 12:22:41,14.98333203,0.0002735,70.0018,196.6194,267.9046,92.18,8.4161e-05,9.11e-06,0.0,0 STARLINK-6072,1 56806U 23078AR  24128.51575591  .00000911  00000-0  84161-4 0  9995,2 56806  70.0018 196.6194 0002735 267.9046  92.1800 14.98333203 53396,6950.183,96.107,573.949,570.147,0.0
56806.0,STARLINK-6072,PAYLOAD,2024-05-07 13:58:49,14.98331928,0.0002793,70.0016,196.451,267.8563,92.2276,6.6161e-05,6.97e-06,0.0,0 STARLINK-6072,1 56806U 23078AR  24128.58251689  .00000697  00000-0  66161-4 0  9992,2 56806  70.0016 196.4510 0002793 267.8563  92.2276 14.98331928 53144,6950.187,96.107,573.993,570.111,0.0
56806.0,STARLINK-6072,PAYLOAD,2024-05-08 12:24:42,14.98334748,0.0002943,70.0012,194.0948,269.9951,90.0871,-0.00011202,-1.429e-05,0.0,0 STARLINK-6072,1 56806U 23078AR  24129.51715682 -.00001429  00000-0 -11202-3 0  9995,2 56806  70.0012 194.0948 0002943 269.9951  90.0871 14.98334748 53544,6950.178,96.107,574.089,569.998,0.0
56806.0,STARLINK-6072,PAYLOAD,2024-05-08 14:00:50,14.98334434,0.0002929,70.0014,193.9268,269.0468,91.0355,-0.00011367,-1.449e-05,0.0,0 STARLINK-6072,1 56806U 23078AR  24129.58391672 -.00001449  00000-0 -11367-3 0  9995,2 56806  70.0014 193.9268 0002929 269.0468  91.0355 14.98334434 53299,6950.179,96.107,574.08,570.008,0.0
56806.0,STARLINK-6072,PAYLOAD,2024-05-08 22:01:30,14.98334964,0.0003068,70.0008,193.0845,270.3975,89.6833,-9.8698e-05,-1.271e-05,0.0,0 STARLINK-6072,1 56806U 23078AR  24129.91771445 -.00001271  00000-0 -98698-4 0  9998,2 56806  70.0008 193.0845 0003068 270.3975  89.6833 14.98334964 53345,6950.178,96.107,574.175,569.91,0.0
56806.0,STARLINK-6072,PAYLOAD,2024-05-09 14:00:01,14.98324042,0.0003274,70.0018,191.4055,273.8625,75.6883,0.00066817,7.887e-05,0.0,0 STARLINK-6072,1 56806U 23078AR  24130.58335648  .00007887  00000-0  66817-3 0  9998,2 56806  70.0018 191.4055 0003274 273.8625  75.6883 14.98324042 53706,6950.211,96.107,574.352,569.801,0.0
56806.0,STARLINK-6072,PAYLOAD,2024-05-09 22:00:01,14.98314991,0.0003222,70.0018,190.5652,270.2568,76.7826,0.0015299,0.00018202,0.0,0 STARLINK-6072,1 56806U 23078AR  24130.91668981  .00018202  00000-0  15299-2 0  9994,2 56806  70.0018 190.5652 0003222 270.2568  76.7826 14.98314991  5820,6950.239,96.108,574.344,569.865,0.0
56806.0,STARLINK-6072,PAYLOAD,2024-05-10 14:04:51,14.9833401,0.0003079,70.0011,188.8763,271.1181,88.9626,6.8851e-05,7.29e-06,0.0,0 STARLINK-6072,1 56806U 23078AR  24131.58670596  .00000729  00000-0  68851-4 0  9992,2 56806  70.0011 188.8763 0003079 271.1181  88.9626 14.98334010 53591,6950.18,96.107,574.185,569.906,0.0
